     2.11           N: GPS NAV DATA                         RINEX VERSION / TYPE
teqc  2019Feb25     NGS Web             20231211 00:39:54UTCPGM / RUN BY / DATE
Linux 2.4.21-27.ELsmp|Opteron|gcc|Linux 64|=+               COMMENT
teqc  2019Feb25     CORS-ADM Account    20231210 12:45:03UTCCOMMENT
     2.10           N: GPS NAV DATA                         COMMENT
rvacn.e(1404.07)                        2023-12-10T12:37 UTCCOMMENT
This file contains the validated broadcast navigation       COMMENT
messages from the following files:                          COMMENT
abmf3430.23n, abpo3430.23n, albh3430.23n, alic3430.23n,     COMMENT
areq3430.23n, badg3430.23n, bake3430.23n, bogt3430.23n,     COMMENT
brew3430.23n, cas13430.23n, cedu3430.23n, chum3430.23n,     COMMENT
coco3430.23n, cro13430.23n, daej3430.23n, darw3430.23n,     COMMENT
dav13430.23n, dgar3430.23n, drao3430.23n, dubo3430.23n,     COMMENT
faa13430.23n, fair3430.23n, falk3430.23n, flin3430.23n,     COMMENT
glps3430.23n, glsv3430.23n, gode3430.23n, godz3430.23n,     COMMENT
gold3430.23n, hlfx3430.23n, hob23430.23n, hofn3430.23n,     COMMENT
holb3430.23n, hrao3430.23n, invk3430.23n, jplm3430.23n,     COMMENT
karr3430.23n, kat13430.23n, kiri3430.23n, kiru3430.23n,     COMMENT
kokb3430.23n, kokv3430.23n, kour3430.23n, laut3430.23n,     COMMENT
lmmf3430.23n, mac13430.23n, mana3430.23n, mas13430.23n,     COMMENT
mat13430.23n, mate3430.23n, maui3430.23n, maw13430.23n,     COMMENT
mbar3430.23n, mcm43430.23n, mdo13430.23n, mkea3430.23n,     COMMENT
mobs3430.23n, mtka3430.23n, nano3430.23n, naur3430.23n,     COMMENT
nico3430.23n, nium3430.23n, nnor3430.23n, not13430.23n,     COMMENT
pert3430.23n, pie13430.23n, pimo3430.23n, pohn3430.23n,     COMMENT
pol23430.23n, polv3430.23n, reun3430.23n, sant3430.23n,     COMMENT
sch23430.23n, stjo3430.23n, suth3430.23n, suwn3430.23n,     COMMENT
sydn3430.23n, tid13430.23n, tow23430.23n, twtf3430.23n,     COMMENT
unbj3430.23n, vill3430.23n, whit3430.23n, will3430.23n,     COMMENT
wsrt3430.23n, yar23430.23n, yarr3430.23n, yell3430.23n      COMMENT
    2.0489D-08 -7.4506D-09 -5.9605D-08  1.7881D-07          ION ALPHA
    1.3722D+05 -1.8022D+05  6.5536D+04  6.5536D+04          ION BETA
    9.313225746155D-10-4.440892098501D-15    61440     2292 DELTA-UTC: A0,A1,T,W
                                                            END OF HEADER
24 23 12  9  2  0  0.0-3.892746753991D-04-8.299139153678D-12 0.000000000000D+00
    1.800000000000D+01-1.218750000000D+01 5.182715880919D-09 8.536903889799D-01
   -6.482005119324D-07 1.496439415496D-02 9.162351489067D-06 5.153623830795D+03
    5.256000000000D+05-1.657754182816D-07 1.916205557539D+00 7.450580596924D-08
    9.335538313614D-01 1.915625000000D+02 9.503601882822D-01-8.471781455131D-09
   -5.568089076117D-10 1.000000000000D+00 2.291000000000D+03 0.000000000000D+00
    2.000000000000D+00 0.000000000000D+00 2.328306436539D-09 1.800000000000D+01
    5.193110000000D+05 4.000000000000D+00
25 23 12  9  2  0  0.0 4.807249642909D-04 1.477928890381D-12 0.000000000000D+00
    5.500000000000D+01 1.057812500000D+02 4.667694428209D-09-1.027356140067D+00
    5.709007382393D-06 1.156941556837D-02 8.428469300270D-06 5.153648290634D+03
    5.256000000000D+05 1.415610313416D-07 3.040768929123D+00 2.477318048477D-07
    9.519573393357D-01 2.155000000000D+02 1.058357808462D+00-8.236057350562D-09
    1.917937032633D-10 1.000000000000D+00 2.291000000000D+03 0.000000000000D+00
    2.000000000000D+00 0.000000000000D+00 5.587935447693D-09 5.500000000000D+01
    5.184180000000D+05 4.000000000000D+00
26 23 12  9  2  0  0.0 2.107345499098D-04-2.955857780762D-12 0.000000000000D+00
    8.200000000000D+01 9.646875000000D+01 4.958063666110D-09-1.849700012824D+00
    4.665926098824D-06 8.667482994497D-03 9.324401617050D-06 5.153802825928D+03
    5.256000000000D+05 6.332993507385D-08 2.981497378259D+00-1.303851604462D-07
    9.327039812875D-01 1.817500000000D+02 5.055765196800D-01-8.194269895661D-09
    2.578678840896D-10 1.000000000000D+00 2.291000000000D+03 0.000000000000D+00
    2.800000000000D+00 0.000000000000D+00 6.984919309616D-09 8.200000000000D+01
    5.184180000000D+05 4.000000000000D+00
27 23 12  9  2  0  0.0-8.057244122028D-05-4.888534022029D-12 0.000000000000D+00
    5.000000000000D+01 3.031250000000D+01 4.679123475703D-09 2.757909808116D+00
    1.434236764908D-06 1.194913871586D-02 2.235174179077D-06 5.153670108795D+03
    5.256000000000D+05-7.450580596924D-08-2.185833936254D+00-1.303851604462D-07
    9.647467733698D-01 3.401250000000D+02 7.425617218077D-01-8.227128407207D-09
    6.678849629467D-11 1.000000000000D+00 2.291000000000D+03 0.000000000000D+00
    2.000000000000D+00 0.000000000000D+00 1.862645149231D-09 5.000000000000D+01
    5.184180000000D+05 4.000000000000D+00
28 23 12  9  2  0  0.0-6.526522338390D-05-9.663381206337D-12 0.000000000000D+00
    1.910000000000D+02-1.512500000000D+01 4.420898433879D-09-1.690306683624D+00
   -6.891787052155D-07 7.603551493958D-04 1.003965735435D-05 5.153546131134D+03
    5.256000000000D+05 7.450580596924D-09 1.975227794977D+00-4.470348358154D-08
    9.610775305197D-01 1.826250000000D+02 1.684530663189D+00-7.924258648609D-09
   -4.053740283126D-10 1.000000000000D+00 2.291000000000D+03 0.000000000000D+00
    2.000000000000D+00 0.000000000000D+00-9.313225746155D-09 4.470000000000D+02
    5.184180000000D+05 4.000000000000D+00
30 23 12  9  2  0  0.0-4.595741629601D-04 4.320099833421D-12 0.000000000000D+00
    4.100000000000D+01-1.140625000000D+01 5.029852370683D-09-2.843607332688D-01
   -5.457550287247D-07 6.613603676669D-03 9.100884199142D-06 5.153725769043D+03
    5.256000000000D+05 4.656612873077D-08 2.013473764944D+00 1.210719347000D-07
    9.351047220194D-01 1.905625000000D+02-2.552655838945D+00-8.344276144023D-09
   -3.543004723225D-10 1.000000000000D+00 2.291000000000D+03 0.000000000000D+00
    2.000000000000D+00 0.000000000000D+00 3.725290298462D-09 4.100000000000D+01
    5.184180000000D+05 4.000000000000D+00
32 23 12  9  2  0  0.0-5.944203585386D-04-3.865352482535D-12 0.000000000000D+00
    2.700000000000D+01-8.468750000000D+00 4.730911347161D-09-2.880529512474D+00
   -3.669410943985D-07 7.207783637568D-03 5.619600415230D-06 5.153598651886D+03
    5.256000000000D+05 2.235174179077D-08 9.518351622694D-01-5.215406417847D-08
    9.605929579239D-01 2.693125000000D+02-2.217361772395D+00-8.012119451221D-09
    1.203621564241D-10 1.000000000000D+00 2.291000000000D+03 0.000000000000D+00
    2.000000000000D+00 0.000000000000D+00 4.656612873077D-10 2.700000000000D+01
    5.184180000000D+05 4.000000000000D+00
14 23 12  9  2 59 44.0 2.656592987478D-04 1.057287590811D-11 0.000000000000D+00
    7.500000000000D+01 9.509375000000D+01 4.669480216880D-09-3.816194112260D-01
    4.999339580536D-06 3.727752249688D-03 8.517876267433D-06 5.153686550140D+03
    5.291840000000D+05 4.656612873077D-08 3.083558469559D+00 1.676380634308D-08
    9.474748179007D-01 2.077187500000D+02-2.955799803166D+00-8.171411800672D-09
    1.614352958566D-10 1.000000000000D+00 2.291000000000D+03 0.000000000000D+00
    2.000000000000D+00 0.000000000000D+00-7.916241884232D-09 7.500000000000D+01
    5.220180000000D+05 4.000000000000D+00
 6 23 12  9  3 59 44.0 4.835240542889D-04-1.125499693444D-11 0.000000000000D+00
    4.900000000000D+01-9.475000000000D+01 3.848731743697D-09 1.746213980799D+00
   -4.839152097702D-06 3.076515975408D-03 7.163733243942D-06 5.153794200897D+03
    5.327840000000D+05 2.421438694000D-08-1.120623927765D+00-2.607703208923D-08
    9.895178926835D-01 2.542500000000D+02-8.206074679949D-01-7.767466403296D-09
   -2.557249376844D-10 1.000000000000D+00 2.291000000000D+03 0.000000000000D+00
    2.000000000000D+00 0.000000000000D+00 3.725290298462D-09 4.900000000000D+01
    5.270880000000D+05 4.000000000000D+00
 9 23 12  9  3 59 44.0 2.111028879881D-05 1.159605744760D-11 0.000000000000D+00
    5.700000000000D+01 6.875000000000D-01 4.972707133212D-09-2.101428561872D+00
   -2.980232238770D-08 2.965563209727D-03 5.522742867470D-06 5.153754394531D+03
    5.327840000000D+05 7.450580596924D-09 9.378144061800D-01 6.891787052155D-08
    9.570863959529D-01 2.718125000000D+02 1.993581547645D+00-8.223556829865D-09
    6.178828801592D-11 1.000000000000D+00 2.291000000000D+03 0.000000000000D+00
    2.000000000000D+00 0.000000000000D+00 1.396983861923D-09 5.700000000000D+01
    5.274180000000D+05 4.000000000000D+00
15 23 12  9  3 59 44.0 1.050806604326D-04 3.865352482535D-12 0.000000000000D+00
    7.500000000000D+01 1.343750000000D+00 5.381652738867D-09 2.681794424759D+00
   -1.490116119385D-08 1.545548217837D-02 4.930421710014D-06 5.153572587967D+03
    5.327840000000D+05 1.322478055954D-07 8.143218224925D-01-1.583248376846D-07
    9.337891344199D-01 2.667187500000D+02 1.279119883997D+00-8.245700609385D-09
    8.321775206769D-11 1.000000000000D+00 2.291000000000D+03 0.000000000000D+00
    2.000000000000D+00 0.000000000000D+00-1.024454832077D-08 7.500000000000D+01
    5.256250000000D+05 4.000000000000D+00
16 23 12  9  3 59 44.0-4.076305776834D-04 7.048583938740D-12 0.000000000000D+00
    6.700000000000D+01 1.147187500000D+02 4.298750488784D-09-1.579955915826D+00
    5.844980478287D-06 1.377447915729D-02 7.789582014084D-06 5.153701883316D+03
    5.327840000000D+05 2.831220626831D-07-3.139880710280D+00-1.415610313416D-07
    9.637390949159D-01 2.238750000000D+02 8.058329989561D-01-7.889614348391D-09
    3.125130174216D-10 1.000000000000D+00 2.291000000000D+03 0.000000000000D+00
    2.000000000000D+00 0.000000000000D+00-1.024454832077D-08 6.700000000000D+01
    5.256180000000D+05 4.000000000000D+00
